CCSDS_OMM_VERS = 2.0
CREATION_DATE  = 
ORIGINATOR     = 

OBJECT_NAME    = SL-14 R/B
OBJECT_ID      = 1986-046B
CENTER_NAME    = EARTH
REF_FRAME      = TEME
TIME_SYSTEM    = UTC
MEAN_ELEMENT_THEORY = SGP/SGP4

EPOCH          = 2026-03-14T12:31:55.799040
MEAN_MOTION    = 14.85595769
ECCENTRICITY   = .00222973
INCLINATION    = 82.4783
RA_OF_ASC_NODE = 75.6140
ARG_OF_PERICENTER = 208.6883
MEAN_ANOMALY   = 151.3108

EPHEMERIS_TYPE = 0
CLASSIFICATION_TYPE = U
NORAD_CAT_ID   = 16792
ELEMENT_SET_NO = 999
REV_AT_EPOCH   = 12712
BSTAR          = .63319674E-4
MEAN_MOTION_DOT = .574E-5
MEAN_MOTION_DDOT = 0

CCSDS_OMM_VERS = 2.0
CREATION_DATE  = 
ORIGINATOR     = 

OBJECT_NAME    = SL-14 R/B
OBJECT_ID      = 1986-055B
CENTER_NAME    = EARTH
REF_FRAME      = TEME
TIME_SYSTEM    = UTC
MEAN_ELEMENT_THEORY = SGP/SGP4

EPOCH          = 2026-03-14T14:26:52.029312
MEAN_MOTION    = 14.85647601
ECCENTRICITY   = .00178014
INCLINATION    = 82.5191
RA_OF_ASC_NODE = 122.0567
ARG_OF_PERICENTER = 319.5789
MEAN_ANOMALY   = 192.9597

EPHEMERIS_TYPE = 0
CLASSIFICATION_TYPE = U
NORAD_CAT_ID   = 16882
ELEMENT_SET_NO = 999
REV_AT_EPOCH   = 12009
BSTAR          = .53663504E-4
MEAN_MOTION_DOT = .49E-5
MEAN_MOTION_DDOT = 0

CCSDS_OMM_VERS = 2.0
CREATION_DATE  = 
ORIGINATOR     = 

OBJECT_NAME    = AJISAI (EGS)
OBJECT_ID      = 1986-061A
CENTER_NAME    = EARTH
REF_FRAME      = TEME
TIME_SYSTEM    = UTC
MEAN_ELEMENT_THEORY = SGP/SGP4

EPOCH          = 2026-03-14T15:00:42.485472
MEAN_MOTION    = 12.44515690
ECCENTRICITY   = .00112849
INCLINATION    = 50.0082
RA_OF_ASC_NODE = 78.1692
ARG_OF_PERICENTER = 299.7390
MEAN_ANOMALY   = 180.1420

EPHEMERIS_TYPE = 0
CLASSIFICATION_TYPE = U
NORAD_CAT_ID   = 16908
ELEMENT_SET_NO = 999
REV_AT_EPOCH   = 46861
BSTAR          = .83784613E-4
MEAN_MOTION_DOT = -.85E-6
MEAN_MOTION_DDOT = 0

CCSDS_OMM_VERS = 2.0
CREATION_DATE  = 
ORIGINATOR     = 

OBJECT_NAME    = SL-14 R/B
OBJECT_ID      = 1987-024B
CENTER_NAME    = EARTH
REF_FRAME      = TEME
TIME_SYSTEM    = UTC
MEAN_ELEMENT_THEORY = SGP/SGP4

EPOCH          = 2026-03-14T13:17:29.265216
MEAN_MOTION    = 14.86137279
ECCENTRICITY   = .00168209
INCLINATION    = 82.5245
RA_OF_ASC_NODE = 88.1906
ARG_OF_PERICENTER = 242.4341
MEAN_ANOMALY   = 117.5167

EPHEMERIS_TYPE = 0
CLASSIFICATION_TYPE = U
NORAD_CAT_ID   = 17567
ELEMENT_SET_NO = 999
REV_AT_EPOCH   = 8885
BSTAR          = .59739036E-4
MEAN_MOTION_DOT = .549E-5
MEAN_MOTION_DDOT = 0

CCSDS_OMM_VERS = 2.0
CREATION_DATE  = 
ORIGINATOR     = 

OBJECT_NAME    = COSMOS 1833
OBJECT_ID      = 1987-027A
CENTER_NAME    = EARTH
REF_FRAME      = TEME
TIME_SYSTEM    = UTC
MEAN_ELEMENT_THEORY = SGP/SGP4

EPOCH          = 2026-03-14T14:28:35.152032
MEAN_MOTION    = 14.13053461
ECCENTRICITY   = .00240187
INCLINATION    = 70.9212
RA_OF_ASC_NODE = 315.6925
ARG_OF_PERICENTER = 207.5556
MEAN_ANOMALY   = 152.4294

EPHEMERIS_TYPE = 0
CLASSIFICATION_TYPE = U
NORAD_CAT_ID   = 17589
ELEMENT_SET_NO = 999
REV_AT_EPOCH   = 1101
BSTAR          = -.80385315E-4
MEAN_MOTION_DOT = -.199E-5
MEAN_MOTION_DDOT = 0

CCSDS_OMM_VERS = 2.0
CREATION_DATE  = 
ORIGINATOR     = 

OBJECT_NAME    = SL-16 R/B
OBJECT_ID      = 1987-027B
CENTER_NAME    = EARTH
REF_FRAME      = TEME
TIME_SYSTEM    = UTC
MEAN_ELEMENT_THEORY = SGP/SGP4

EPOCH          = 2026-03-14T13:30:09.907488
MEAN_MOTION    = 14.17166603
ECCENTRICITY   = .00031949
INCLINATION    = 70.9992
RA_OF_ASC_NODE = 266.2256
ARG_OF_PERICENTER = 131.6767
MEAN_ANOMALY   = 228.4630

EPHEMERIS_TYPE = 0
CLASSIFICATION_TYPE = U
NORAD_CAT_ID   = 17590
ELEMENT_SET_NO = 999
REV_AT_EPOCH   = 1603
BSTAR          = .38319119E-4
MEAN_MOTION_DOT = .29E-6
MEAN_MOTION_DDOT = 0

CCSDS_OMM_VERS = 2.0
CREATION_DATE  = 
ORIGINATOR     = 

OBJECT_NAME    = SL-14 R/B
OBJECT_ID      = 1987-038B
CENTER_NAME    = EARTH
REF_FRAME      = TEME
TIME_SYSTEM    = UTC
MEAN_ELEMENT_THEORY = SGP/SGP4

EPOCH          = 2026-03-14T14:50:51.576864
MEAN_MOTION    = 14.85374253
ECCENTRICITY   = .00200796
INCLINATION    = 82.4993
RA_OF_ASC_NODE = 292.1639
ARG_OF_PERICENTER = 144.6941
MEAN_ANOMALY   = 215.5610

EPHEMERIS_TYPE = 0
CLASSIFICATION_TYPE = U
NORAD_CAT_ID   = 17912
ELEMENT_SET_NO = 999
REV_AT_EPOCH   = 7996
BSTAR          = .57451948E-4
MEAN_MOTION_DOT = .52E-5
MEAN_MOTION_DDOT = 0

CCSDS_OMM_VERS = 2.0
CREATION_DATE  = 
ORIGINATOR     = 

OBJECT_NAME    = COSMOS 1844
OBJECT_ID      = 1987-041A
CENTER_NAME    = EARTH
REF_FRAME      = TEME
TIME_SYSTEM    = UTC
MEAN_ELEMENT_THEORY = SGP/SGP4

EPOCH          = 2026-03-14T13:29:53.589984
MEAN_MOTION    = 14.14551376
ECCENTRICITY   = .00302818
INCLINATION    = 70.9004
RA_OF_ASC_NODE = 23.8973
ARG_OF_PERICENTER = 10.7011
MEAN_ANOMALY   = 349.4748

EPHEMERIS_TYPE = 0
CLASSIFICATION_TYPE = U
NORAD_CAT_ID   = 17973
ELEMENT_SET_NO = 999
REV_AT_EPOCH   = 427
BSTAR          = -.25844957E-4
MEAN_MOTION_DOT = -.98E-6
MEAN_MOTION_DDOT = 0

CCSDS_OMM_VERS = 2.0
CREATION_DATE  = 
ORIGINATOR     = 

OBJECT_NAME    = SL-14 R/B
OBJECT_ID      = 1987-055B
CENTER_NAME    = EARTH
REF_FRAME      = TEME
TIME_SYSTEM    = UTC
MEAN_ELEMENT_THEORY = SGP/SGP4

EPOCH          = 2026-03-14T11:02:22.632288
MEAN_MOTION    = 14.85635434
ECCENTRICITY   = .00207221
INCLINATION    = 82.5029
RA_OF_ASC_NODE = 344.5368
ARG_OF_PERICENTER = 2.3194
MEAN_ANOMALY   = 357.8114

EPHEMERIS_TYPE = 0
CLASSIFICATION_TYPE = U
NORAD_CAT_ID   = 18153
ELEMENT_SET_NO = 999
REV_AT_EPOCH   = 7064
BSTAR          = .6142791E-4
MEAN_MOTION_DOT = .558E-5
MEAN_MOTION_DDOT = 0

CCSDS_OMM_VERS = 2.0
CREATION_DATE  = 
ORIGINATOR     = 

OBJECT_NAME    = COSMOS 1867
OBJECT_ID      = 1987-060A
CENTER_NAME    = EARTH
REF_FRAME      = TEME
TIME_SYSTEM    = UTC
MEAN_ELEMENT_THEORY = SGP/SGP4

EPOCH          = 2026-03-14T14:39:52.529760
MEAN_MOTION    = 14.31503833
ECCENTRICITY   = .00145693
INCLINATION    = 65.0103
RA_OF_ASC_NODE = 292.9233
ARG_OF_PERICENTER = 278.9427
MEAN_ANOMALY   = 81.0008

EPHEMERIS_TYPE = 0
CLASSIFICATION_TYPE = U
NORAD_CAT_ID   = 18187
ELEMENT_SET_NO = 999
REV_AT_EPOCH   = 2064
BSTAR          = .34449784E-4
MEAN_MOTION_DOT = -.8E-7
MEAN_MOTION_DDOT = 0

CCSDS_OMM_VERS = 2.0
CREATION_DATE  = 
ORIGINATOR     = 

OBJECT_NAME    = SL-14 R/B
OBJECT_ID      = 1988-001B
CENTER_NAME    = EARTH
REF_FRAME      = TEME
TIME_SYSTEM    = UTC
MEAN_ELEMENT_THEORY = SGP/SGP4

EPOCH          = 2026-03-14T14:10:06.331584
MEAN_MOTION    = 14.85534531
ECCENTRICITY   = .00171455
INCLINATION    = 82.5159
RA_OF_ASC_NODE = 190.7520
ARG_OF_PERICENTER = 218.4772
MEAN_ANOMALY   = 141.5223

EPHEMERIS_TYPE = 0
CLASSIFICATION_TYPE = U
NORAD_CAT_ID   = 18749
ELEMENT_SET_NO = 999
REV_AT_EPOCH   = 4275
BSTAR          = .73004253E-4
MEAN_MOTION_DOT = .656E-5
MEAN_MOTION_DDOT = 0

CCSDS_OMM_VERS = 2.0
CREATION_DATE  = 
ORIGINATOR     = 

OBJECT_NAME    = COSMOS 1933
OBJECT_ID      = 1988-020A
CENTER_NAME    = EARTH
REF_FRAME      = TEME
TIME_SYSTEM    = UTC
MEAN_ELEMENT_THEORY = SGP/SGP4

EPOCH          = 2026-03-14T12:52:06.982752
MEAN_MOTION    = 15.18037175
ECCENTRICITY   = .00042931
INCLINATION    = 82.5105
RA_OF_ASC_NODE = 246.1158
ARG_OF_PERICENTER = 166.9190
MEAN_ANOMALY   = 193.2156

EPHEMERIS_TYPE = 0
CLASSIFICATION_TYPE = U
NORAD_CAT_ID   = 18958
ELEMENT_SET_NO = 999
REV_AT_EPOCH   = 5096
BSTAR          = .28845292E-3
MEAN_MOTION_DOT = .59E-4
MEAN_MOTION_DDOT = 0

